ONEWEB-0311             
1 49097U 21075Y   25170.50055529 -.00000049  00000+0 -15811-3 0  9993
2 49097  87.9071  78.0677 0001827  65.1504 294.9817 13.17651698185862
ONEWEB-0312             
1 49098U 21075Z   25170.43981290 -.00000229  00000+0 -62376-3 0  9997
2 49098  87.9071  78.1108 0002186  69.4081 290.7285 13.17648671185836
ONEWEB-0313             
1 49099U 21075AA  25170.44473135 -.00000094  00000+0 -27483-3 0  9993
2 49099  87.9072  78.1254 0001824  76.3810 283.7525 13.17648697185821
ONEWEB-0314             
1 49100U 21075AB  25170.10738231  .00000063  00000+0  12890-3 0  9990
2 49100  87.9065  78.1239 0002119  68.1348 292.0009 13.17650204185751
ONEWEB-0315             
1 49101U 21075AC  25170.39671833  .00000183  00000+0  47366-3 0  9995
2 49101  87.8879  62.8009 0001590  69.3476 290.7823 13.12440636187589
ONEWEB-0316             
1 49102U 21075AD  25170.39397554  .00000849  00000+0  21199-2 0  9995
2 49102  87.9140  47.5615 0001589  77.8462 282.2848 13.18681954189392
ONEWEB-0317             
1 49103U 21075AE  25170.08530413  .00000311  00000+0  82781-3 0  9994
2 49103  87.8879  62.8784 0002638  87.5902 272.5528 13.12442574187562
ONEWEB-0318             
1 49104U 21075AF  25170.39080977  .00000033  00000+0  51217-4 0  9996
2 49104  87.9143  47.5481 0001654  74.5131 285.6184 13.18687277189358
